[
  {
    "OBJECT_NAME": "GSAT0101 (GALILEO-PFM)",
    "OBJECT_ID": "2011-060A",
    "EPOCH": "2026-06-26T05:36:36.819936",
    "MEAN_MOTION": 1.70475865,
    "ECCENTRICITY": 0.0002838,
    "INCLINATION": 56.9911,
    "RA_OF_ASC_NODE": 341.5158,
    "ARG_OF_PERICENTER": 55.837,
    "MEAN_ANOMALY": 304.1849,
    "EPHEMERIS_TYPE": 0,
    "CLASSIFICATION_TYPE": "U",
    "NORAD_CAT_ID": 37846,
    "ELEMENT_SET_NO": 999,
    "REV_AT_EPOCH": 9127,
    "BSTAR": 0,
    "MEAN_MOTION_DOT": -9.6e-07,
    "MEAN_MOTION_DDOT": 0
  },
  {
    "OBJECT_NAME": "GSAT0203 (GALILEO 7)",
    "OBJECT_ID": "2015-017A",
    "EPOCH": "2026-06-26T14:21:18.819936",
    "MEAN_MOTION": 1.70476365,
    "ECCENTRICITY": 0.00021306,
    "INCLINATION": 56.7831,
    "RA_OF_ASC_NODE": 341.3391,
    "ARG_OF_PERICENTER": 269.4919,
    "MEAN_ANOMALY": 90.4779,
    "EPHEMERIS_TYPE": 0,
    "CLASSIFICATION_TYPE": "U",
    "NORAD_CAT_ID": 40544,
    "ELEMENT_SET_NO": 999,
    "REV_AT_EPOCH": 6936,
    "BSTAR": 0,
    "MEAN_MOTION_DOT": -9.6e-07,
    "MEAN_MOTION_DDOT": 0
  },
  {
    "OBJECT_NAME": "GSAT0207 (GALILEO 15)",
    "OBJECT_ID": "2016-069A",
    "EPOCH": "2026-06-26T17:13:02.065728",
    "MEAN_MOTION": 1.704737,
    "ECCENTRICITY": 0.00050068,
    "INCLINATION": 55.5042,
    "RA_OF_ASC_NODE": 100.8225,
    "ARG_OF_PERICENTER": 333.0982,
    "MEAN_ANOMALY": 26.85,
    "EPHEMERIS_TYPE": 0,
    "CLASSIFICATION_TYPE": "U",
    "NORAD_CAT_ID": 41859,
    "ELEMENT_SET_NO": 999,
    "REV_AT_EPOCH": 5956,
    "BSTAR": 0,
    "MEAN_MOTION_DOT": -3.8e-07,
    "MEAN_MOTION_DDOT": 0
  },
  {
    "OBJECT_NAME": "GSAT0211 (GALILEO 14)",
    "OBJECT_ID": "2016-030A",
    "EPOCH": "2026-06-27T08:31:06.738240",
    "MEAN_MOTION": 1.70474008,
    "ECCENTRICITY": 0.0003113,
    "INCLINATION": 55.0928,
    "RA_OF_ASC_NODE": 221.415,
    "ARG_OF_PERICENTER": 320.4924,
    "MEAN_ANOMALY": 39.5806,
    "EPHEMERIS_TYPE": 0,
    "CLASSIFICATION_TYPE": "U",
    "NORAD_CAT_ID": 41549,
    "ELEMENT_SET_NO": 999,
    "REV_AT_EPOCH": 6284,
    "BSTAR": 0,
    "MEAN_MOTION_DOT": 6.7e-07,
    "MEAN_MOTION_DDOT": 0
  },
  {
    "OBJECT_NAME": "GSAT0224 (GALILEO 28)",
    "OBJECT_ID": "2021-116B",
    "EPOCH": "2026-06-27T08:47:14.876160",
    "MEAN_MOTION": 1.70476529,
    "ECCENTRICITY": 0.0001419,
    "INCLINATION": 57.1577,
    "RA_OF_ASC_NODE": 341.3987,
    "ARG_OF_PERICENTER": 161.6476,
    "MEAN_ANOMALY": 197.8652,
    "EPHEMERIS_TYPE": 0,
    "CLASSIFICATION_TYPE": "U",
    "NORAD_CAT_ID": 49810,
    "ELEMENT_SET_NO": 999,
    "REV_AT_EPOCH": 2837,
    "BSTAR": 0,
    "MEAN_MOTION_DOT": -9.4e-07,
    "MEAN_MOTION_DDOT": 0
  },
  {
    "OBJECT_NAME": "GSAT0223 (GALILEO 27)",
    "OBJECT_ID": "2021-116A",
    "EPOCH": "2026-06-23T10:34:17.397696",
    "MEAN_MOTION": 1.70476308,
    "ECCENTRICITY": 0.00016008,
    "INCLINATION": 57.159,
    "RA_OF_ASC_NODE": 341.5051,
    "ARG_OF_PERICENTER": 183.5383,
    "MEAN_ANOMALY": 174.0725,
    "EPHEMERIS_TYPE": 0,
    "CLASSIFICATION_TYPE": "U",
    "NORAD_CAT_ID": 49809,
    "ELEMENT_SET_NO": 999,
    "REV_AT_EPOCH": 2828,
    "BSTAR": 0,
    "MEAN_MOTION_DOT": -9.8e-07,
    "MEAN_MOTION_DDOT": 0
  }
]
